NORAD_CAT_ID,OBJECT_NAME,OBJECT_TYPE,EPOCH,MEAN_MOTION,ECCENTRICITY,INCLINATION,RA_OF_ASC_NODE,ARG_OF_PERICENTER,MEAN_ANOMALY,BSTAR,MEAN_MOTION_DOT,MEAN_MOTION_DDOT,TLE_LINE0,TLE_LINE1,TLE_LINE2,SEMIMAJOR_AXIS,PERIOD,APOGEE,PERIGEE,DECAYED
53718.0,STARLINK-4695,PAYLOAD,2023-06-16 17:50:07,15.08845165,0.0001176,53.2175,49.225,81.2672,278.8453,9.2962e-05,1.192e-05,0.0,0 STARLINK-4695,1 53718U 22107U   23167.74313744  .00001192  00000-0  92962-4 0  9993,2 53718  53.2175  49.2250 0001176  81.2672 278.8453 15.08845165 43908,6917.865,95.437,540.543,538.916,0.0
53718.0,STARLINK-4695,PAYLOAD,2023-06-17 11:19:22,15.08834673,0.0001035,53.2161,45.9508,92.4335,267.6776,-1.8475e-05,-5.82e-06,0.0,0 STARLINK-4695,1 53718U 22107U   23168.47178559 -.00000582  00000-0 -18475-4 0  9998,2 53718  53.2161  45.9508 0001035  92.4335 267.6776 15.08834673 44015,6917.897,95.438,540.478,539.046,0.0
53718.0,STARLINK-4695,PAYLOAD,2023-06-17 16:05:33,15.08819598,6.79e-05,53.2164,45.0573,41.3205,318.7838,-0.00024306,-4.152e-05,0.0,0 STARLINK-4695,1 53718U 22107U   23168.67052372 -.00004152  00000-0 -24306-3 0  9990,2 53718  53.2164  45.0573 0000679  41.3205 318.7838 15.08819598 43591,6917.943,95.439,540.277,539.338,0.0
53718.0,STARLINK-4695,PAYLOAD,2023-06-17 22:27:05,15.08824842,0.0001122,53.2177,43.8715,72.9674,287.1441,-0.00018807,-3.278e-05,0.0,0 STARLINK-4695,1 53718U 22107U   23168.93548159 -.00003278  00000-0 -18807-3 0  9999,2 53718  53.2177  43.8715 0001122  72.9674 287.1441 15.08824842 44085,6917.927,95.439,540.568,539.016,0.0
53718.0,STARLINK-4695,PAYLOAD,2023-06-18 15:56:19,15.08834502,0.0001033,53.2177,40.6012,82.7623,277.3487,-2.9587e-05,-7.59e-06,0.0,0 STARLINK-4695,1 53718U 22107U   23169.66411440 -.00000759  00000-0 -29587-4 0  9991,2 53718  53.2177  40.6012 0001033  82.7623 277.3487 15.08834502 43741,6917.897,95.438,540.477,539.048,0.0
53718.0,STARLINK-4695,PAYLOAD,2023-06-18 19:07:05,15.08837514,0.0001091,53.2175,40.0063,82.2879,277.8237,7.0119e-06,-1.76e-06,0.0,0 STARLINK-4695,1 53718U 22107U   23169.79659229 -.00000176  00000-0  70119-5 0  9994,2 53718  53.2175  40.0063 0001091  82.2879 277.8237 15.08837514 44218,6917.888,95.438,540.508,538.998,0.0
53718.0,STARLINK-4695,PAYLOAD,2023-06-18 22:17:51,15.08841761,0.0001027,53.2176,39.4115,82.6332,277.4777,4.3945e-05,4.12e-06,0.0,0 STARLINK-4695,1 53718U 22107U   23169.92906888  .00000412  00000-0  43945-4 0  9993,2 53718  53.2176  39.4115 0001027  82.6332 277.4777 15.08841761 43781,6917.875,95.437,540.45,539.03,0.0
53718.0,STARLINK-4695,PAYLOAD,2023-06-19 11:00:56,15.08830162,0.0001111,53.2175,37.0327,72.6571,287.4542,0.0003224,4.846e-05,0.0,0 STARLINK-4695,1 53718U 22107U   23170.45899198  .00004846  00000-0  32240-3 0  9998,2 53718  53.2175  37.0327 0001111  72.6571 287.4542 15.08830162 44311,6917.91,95.438,540.544,539.007,0.0
53718.0,STARLINK-4695,PAYLOAD,2023-06-19 17:22:29,15.08836339,0.0001124,53.2175,35.8433,73.4526,286.659,0.00036873,5.585e-05,0.0,0 STARLINK-4695,1 53718U 22107U   23170.72395089  .00005585  00000-0  36873-3 0  9995,2 53718  53.2175  35.8433 0001124  73.4526 286.6590 15.08836339 44358,6917.892,95.438,540.534,538.979,0.0
53718.0,STARLINK-4695,PAYLOAD,2023-06-19 23:44:01,15.0885507,0.0001144,53.2168,34.6539,71.7292,288.3824,0.00054649,8.424e-05,0.0,0 STARLINK-4695,1 53718U 22107U   23170.98890824  .00008424  00000-0  54649-3 0  9996,2 53718  53.2168  34.6539 0001144  71.7292 288.3824 15.08855070 43943,6917.834,95.437,540.491,538.908,0.0
53718.0,STARLINK-4695,PAYLOAD,2023-06-20 09:16:20,15.08849721,0.000127,53.2173,32.8681,76.0173,284.096,0.00015606,2.197e-05,0.0,0 STARLINK-4695,1 53718U 22107U   23171.38634818  .00002197  00000-0  15606-3 0  9991,2 53718  53.2173  32.8681 0001270  76.0173 284.0960 15.08849721 44001,6917.851,95.437,540.594,538.837,0.0
53718.0,STARLINK-4695,PAYLOAD,2023-06-20 20:24:02,15.08842577,0.0001095,53.2161,30.7882,90.0244,270.0873,-8.3567e-05,-1.618e-05,0.0,0 STARLINK-4695,1 53718U 22107U   23171.85002800 -.00001618  00000-0 -83567-4 0  9994,2 53718  53.2161  30.7882 0001095  90.0244 270.0873 15.08842577 44525,6917.873,95.437,540.495,538.98,0.0
53718.0,STARLINK-4695,PAYLOAD,2023-06-20 23:34:48,15.08848338,0.0001081,53.2163,30.1938,89.8016,270.31,6.8603e-05,8.04e-06,0.0,0 STARLINK-4695,1 53718U 22107U   23171.98250630  .00000804  00000-0  68603-4 0  9992,2 53718  53.2163  30.1938 0001081  89.8016 270.3100 15.08848338 44540,6917.855,95.437,540.468,538.972,0.0
53718.0,STARLINK-4695,PAYLOAD,2023-06-21 18:39:26,15.08840197,0.0001012,53.2164,26.625,96.2539,263.8568,-1.5793e-05,-5.39e-06,0.0,0 STARLINK-4695,1 53718U 22107U   23172.77738868 -.00000539  00000-0 -15793-4 0  9993,2 53718  53.2164  26.6250 0001012  96.2539 263.8568 15.08840197 44218,6917.88,95.438,540.445,539.045,0.0
53718.0,STARLINK-4695,PAYLOAD,2023-06-21 20:14:49,15.0884297,0.000104,53.2164,26.3266,99.3531,260.7579,4.3563e-05,4.06e-06,0.0,0 STARLINK-4695,1 53718U 22107U   23172.84362757  .00000406  00000-0  43563-4 0  9998,2 53718  53.2164  26.3266 0001040  99.3531 260.7579 15.08842970 44678,6917.871,95.437,540.456,539.017,0.0
53718.0,STARLINK-4695,PAYLOAD,2023-06-22 20:05:37,15.08836331,9.3e-05,53.2158,21.8662,83.1404,276.9693,0.00012057,1.631e-05,0.0,0 STARLINK-4695,1 53718U 22107U   23173.83723554  .00001631  00000-0  12057-3 0  9998,2 53718  53.2158  21.8662 0000930  83.1404 276.9693 15.08836331 44375,6917.892,95.438,540.4,539.113,0.0
53718.0,STARLINK-4695,PAYLOAD,2023-06-23 23:07:10,15.08852173,0.0001106,53.217,16.8107,87.4335,272.6784,0.00037312,5.657e-05,0.0,0 STARLINK-4695,1 53718U 22107U   23174.96331098  .00005657  00000-0  37312-3 0  9994,2 53718  53.2170  16.8107 0001106  87.4335 272.6784 15.08852173 44548,6917.843,95.437,540.473,538.943,0.0
53718.0,STARLINK-4695,PAYLOAD,2023-06-24 07:04:05,15.0884659,9.87e-05,53.2158,15.3243,83.7667,276.3438,0.00030359,4.548e-05,0.0,0 STARLINK-4695,1 53718U 22107U   23175.29451297  .00004548  00000-0  30359-3 0  9997,2 53718  53.2158  15.3243 0000987  83.7667 276.3438 15.08846590 44590,6917.86,95.437,540.408,539.042,0.0
53718.0,STARLINK-4695,PAYLOAD,2023-06-24 19:47:11,15.08845432,0.0001222,53.2174,12.9467,85.4321,274.6811,0.00020851,3.033e-05,0.0,0 STARLINK-4695,1 53718U 22107U   23175.82443426  .00003033  00000-0  20851-3 0  9995,2 53718  53.2174  12.9467 0001222  85.4321 274.6811 15.08845432 44677,6917.864,95.437,540.574,538.883,0.0
53718.0,STARLINK-4695,PAYLOAD,2023-06-25 16:27:12,15.08839382,0.0001262,53.2172,9.0796,92.3798,267.7339,6.39e-05,7.29e-06,0.0,0 STARLINK-4695,1 53718U 22107U   23176.68555690  .00000729  00000-0  63900-4 0  9999,2 53718  53.2172   9.0796 0001262  92.3798 267.7339 15.08839382 44806,6917.882,95.438,540.62,538.874,0.0
53718.0,STARLINK-4695,PAYLOAD,2023-06-26 19:28:45,15.08842,0.000118,53.2177,4.0263,82.7943,277.3183,0.00015119,2.119e-05,0.0,0 STARLINK-4695,1 53718U 22107U   23177.81163742  .00002119  00000-0  15119-3 0  9991,2 53718  53.2177   4.0263 0001180  82.7943 277.3183 15.08842000 44972,6917.874,95.437,540.556,538.923,0.0
53718.0,STARLINK-4695,PAYLOAD,2023-06-28 04:51:51,15.08841205,0.0001087,53.2179,357.7819,84.673,275.4386,5.6139e-05,6.06e-06,0.0,0 STARLINK-4695,1 53718U 22107U   23179.20268019  .00000606  00000-0  56139-4 0  9996,2 53718  53.2179 357.7819 0001087  84.6730 275.4386 15.08841205 45184,6917.877,95.437,540.494,538.99,0.0
53718.0,STARLINK-4695,PAYLOAD,2023-06-29 11:04:11,15.08839437,0.0001251,53.219,352.1316,96.0593,264.0542,8.0784e-05,9.98e-06,0.0,0 STARLINK-4695,1 53718U 22107U   23180.46124226  .00000998  00000-0  80784-4 0  9994,2 53718  53.2190 352.1316 0001251  96.0593 264.0542 15.08839437 45378,6917.882,95.438,540.613,538.882,0.0
53718.0,STARLINK-4695,PAYLOAD,2023-06-30 15:41:07,15.08837693,0.0001125,53.2182,346.7782,87.6463,272.4658,8.6753e-05,1.093e-05,0.0,0 STARLINK-4695,1 53718U 22107U   23181.65356364  .00001093  00000-0  86753-4 0  9995,2 53718  53.2182 346.7782 0001125  87.6463 272.4658 15.08837693 45550,6917.887,95.438,540.531,538.974,0.0
53718.0,STARLINK-4695,PAYLOAD,2023-07-01 17:07:18,15.08840841,0.0001076,53.2184,342.02,86.1568,273.9547,2.1259e-05,5.1e-07,0.0,0 STARLINK-4695,1 53718U 22107U   23182.71340284  .00000051  00000-0  21259-4 0  9990,2 53718  53.2184 342.0200 0001076  86.1568 273.9547 15.08840841 45711,6917.878,95.438,540.487,538.998,0.0
53718.0,STARLINK-4695,PAYLOAD,2023-07-02 15:22:41,15.08859857,0.0001276,53.2181,337.8564,79.5455,280.5681,-0.00020043,-3.478e-05,0.0,0 STARLINK-4695,1 53718U 22107U   23183.64075454 -.00003478  00000-0 -20043-3 0  9994,2 53718  53.2181 337.8564 0001276  79.5455 280.5681 15.08859857 45851,6917.82,95.436,540.567,538.802,0.0
53718.0,STARLINK-4695,PAYLOAD,2023-07-02 20:08:50,15.08845806,0.0001214,53.2184,336.964,84.8433,275.2698,8.3276e-05,1.038e-05,0.0,0 STARLINK-4695,1 53718U 22107U   23183.83947761  .00001038  00000-0  83276-4 0  9990,2 53718  53.2184 336.9640 0001214  84.8433 275.2698 15.08845806 45887,6917.863,95.437,540.567,538.888,0.0
53718.0,STARLINK-4695,PAYLOAD,2023-07-03 16:48:51,15.08839945,0.0001127,53.218,333.099,80.5397,279.5723,7.5492e-05,9.14e-06,0.0,0 STARLINK-4695,1 53718U 22107U   23184.70060184  .00000914  00000-0  75492-4 0  9995,2 53718  53.2180 333.0990 0001127  80.5397 279.5723 15.08839945 46013,6917.881,95.438,540.525,538.966,0.0
53718.0,STARLINK-4695,PAYLOAD,2023-07-05 02:11:58,15.08841157,0.0001011,53.2177,326.8567,80.7643,279.3463,-3.3703e-05,-8.24e-06,0.0,0 STARLINK-4695,1 53718U 22107U   23186.09164513 -.00000824  00000-0 -33703-4 0  9991,2 53718  53.2177 326.8567 0001011  80.7643 279.3463 15.08841157 46227,6917.877,95.437,540.441,539.042,0.0
53718.0,STARLINK-4695,PAYLOAD,2023-07-06 09:59:41,15.0883917,0.000104,53.2187,320.909,95.4703,264.6408,5.5094e-05,5.89e-06,0.0,0 STARLINK-4695,1 53718U 22107U   23187.41644790  .00000589  00000-0  55094-4 0  9991,2 53718  53.2187 320.9090 0001040  95.4703 264.6408 15.08839170 46426,6917.883,95.438,540.467,539.028,0.0
